PANDORA
1 67395U 80229J   26051.68655093  .00000000  00000-0  37770-3 0    07
2 67395  97.8041  52.1833 0006092 140.2829 159.5911 14.87808310    07
